OBJECT_NAME,OBJECT_ID,EPOCH,MEAN_MOTION,ECCENTRICITY,INCLINATION,RA_OF_ASC_NODE,ARG_OF_PERICENTER,MEAN_ANOMALY,EPHEMERIS_TYPE,CLASSIFICATION_TYPE,NORAD_CAT_ID,ELEMENT_SET_NO,REV_AT_EPOCH,BSTAR,MEAN_MOTION_DOT,MEAN_MOTION_DDOT
CENTISPACE-1 GROUP 05 OBJECT J,2026-138J,2026-07-02T07:41:19.739904,14.15847888,.00086407,55.1398,225.2509,314.5589,45.4679,0,U,69636,999,213,-.13077668E-3,-.412E-5,0
VICTUS HAZE PUMA,2026-142A,2026-07-02T06:48:13.585248,15.20934475,.00220092,97.4463,80.7369,310.5126,49.4192,0,U,69646,999,196,.19152138E-4,.355E-5,0
HOKUSHIN-1,1998-067YH,2026-07-02T06:37:08.789952,15.50484062,.00061053,51.6307,225.3259,281.0628,78.9674,0,U,69648,999,199,.43464486E-3,.24869E-3,0
STARLINK-37656,2026-143A,2026-07-02T06:00:02.999808,15.79430633,.0001479,97.2835,226.8620,78.7313,26.1610,0,U,69649,999,288,-.16388873E-1,-.2523942E-1,0
STARLINK-37646,2026-143B,2026-07-02T06:00:02.999808,15.80842025,.00013795,97.2833,226.8774,62.8209,74.9400,0,U,69650,999,288,-.2225701E-3,-.42618E-3,0
STARLINK-37749,2026-143C,2026-07-02T06:00:02.999808,15.80833604,.00014766,97.2830,226.8811,80.1888,68.4785,0,U,69651,999,288,-.710156E-5,-.1503E-4,0
STARLINK-37819,2026-143D,2026-07-02T06:00:02.999808,15.80827920,.00011748,97.2830,226.8709,84.8191,36.0639,0,U,69652,999,288,.18712198E-3,.35867E-3,0
STARLINK-37729,2026-143E,2026-07-02T06:00:02.999808,15.80863136,.00008695,97.2831,226.8800,83.2833,60.9700,0,U,69653,999,288,-.25413357E-3,-.48652E-3,0
STARLINK-37838,2026-143F,2026-07-02T06:00:02.999808,15.80820457,.00013296,97.2831,226.8711,79.5433,45.4480,0,U,69654,999,288,.2533036E-3,.48659E-3,0
STARLINK-37884,2026-143G,2026-07-02T06:00:02.999808,15.80836143,.00014892,97.2829,226.8932,120.8360,52.6756,0,U,69655,999,288,.15670871E-3,.30006E-3,0
STARLINK-37876,2026-143H,2026-07-02T06:00:02.999808,15.80827756,.00009182,97.2827,226.8828,69.6151,81.7421,0,U,69656,999,278,.24691904E-3,.47437E-3,0
STARLINK-37784,2026-143J,2026-07-02T06:00:02.999808,15.80867368,.00012721,97.2828,226.8831,87.7241,65.4295,0,U,69657,999,278,-.25754582E-3,-.49311E-3,0
STARLINK-37851,2026-143K,2026-07-02T06:00:02.999808,15.80824357,.00011494,97.2830,226.8954,73.6119,105.1625,0,U,69658,999,277,.29600627E-3,.56949E-3,0
STARLINK-37229,2026-143L,2026-07-02T06:00:02.999808,15.80861708,.00014381,97.2829,226.8737,80.0829,51.9698,0,U,69659,999,282,-.19407791E-3,-.37237E-3,0
STARLINK-37556,2026-143M,2026-07-02T06:00:02.999808,15.80839403,.00011076,97.2828,226.8793,89.2306,53.3189,0,U,69660,999,282,.1344943E-3,.25723E-3,0
STARLINK-37867,2026-143N,2026-07-02T06:00:02.999808,15.80811830,.0001215,97.2831,226.9004,84.6740,106.9394,0,U,69661,999,278,.33244046E-3,.63992E-3,0
STARLINK-37852,2026-143P,2026-07-02T06:00:02.999808,15.80867493,.00012615,97.2829,226.8794,85.0955,60.4930,0,U,69662,999,278,-.25310564E-3,-.48469E-3,0
STARLINK-37554,2026-143Q,2026-07-02T06:00:02.999808,15.80813426,.00013053,97.2829,226.8972,107.6418,76.1396,0,U,69663,999,282,.32522572E-3,.62595E-3,0
STARLINK-37830,2026-143R,2026-07-02T06:00:02.999808,15.80832475,.00007728,97.2832,226.8819,106.2663,43.9529,0,U,69664,999,277,.23775603E-3,.45671E-3,0
STARLINK-37837,2026-143S,2026-07-02T06:00:02.999808,15.80825076,.00006914,97.2829,226.8980,102.5190,85.0443,0,U,69665,999,278,.21394378E-3,.41047E-3,0
STARLINK-37943,2026-143T,2026-07-02T06:00:02.999808,15.80819014,.00014748,97.2829,226.8941,122.7434,54.5574,0,U,69666,999,278,.340918E-3,.65663E-3,0
STARLINK-37941,2026-143U,2026-07-02T06:00:02.999808,15.80864195,.00012964,97.2826,226.8895,90.3506,78.7594,0,U,69667,999,278,-.22792374E-3,-.43678E-3,0
STARLINK-37930,2026-143V,2026-07-02T06:00:02.999808,15.80868563,.00012696,97.2827,226.8923,96.2975,78.8433,0,U,69668,999,277,-.28644193E-3,-.54797E-3,0
STARLINK-37945,2026-143W,2026-07-02T06:00:02.999808,15.80859386,.00009656,97.2824,226.8965,99.7111,85.3937,0,U,69669,999,278,-.23663056E-3,-.45321E-3,0
STARLINK-37948,2026-143X,2026-07-02T06:00:02.999808,15.80860343,.00013905,97.2828,226.9316,95.4298,170.6157,0,U,69670,999,278,-.35452661E-3,-.67664E-3,0
STARLINK-37949,2026-143Y,2026-07-02T06:00:02.999808,15.80807279,.00012387,97.2833,226.9193,92.0242,144.6800,0,U,69671,999,278,.3399779E-3,.65443E-3,0
STARLINK-37946,2026-143Z,2026-07-02T06:00:02.999808,15.80838636,.00010148,97.2828,226.9102,90.9468,123.1066,0,U,69672,999,278,.982191E-5,.1742E-4,0
TJS-26A,2026-144A,2026-06-23T07:54:55.514880,2.27958502,.73145613,19.5157,324.7456,179.7910,181.1077,0,U,69674,999,2,.31526459E-3,.963E-4,-.166614E-6
