CENTISPACE-1 GROUP 05 O*
1 69636U 26138J   26183.32036736 -.00000412  00000+0 -13078-3 0  9990
2 69636  55.1398 225.2509 0008640 314.5589  45.4679 14.15847888  2136
VICTUS HAZE PUMA        
1 69646U 26142A   26183.28349057  .00000355  00000+0  19152-4 0  9998
2 69646  97.4463  80.7369 0022009 310.5126  49.4192 15.20934475  1965
HOKUSHIN-1              
1 69648U 98067YH  26183.27579618  .00024869  00000+0  43464-3 0  9990
2 69648  51.6307 225.3259 0006105 281.0628  78.9674 15.50484062  1999
STARLINK-37656          
1 69649U 26143A   26183.25003472 -.02523942  00000+0 -16389-1 0  9999
2 69649  97.2835 226.8620 0001479  78.7313  26.1610 15.79430633  2881
STARLINK-37646          
1 69650U 26143B   26183.25003472 -.00042618  00000+0 -22257-3 0  9998
2 69650  97.2833 226.8774 0001379  62.8209  74.9400 15.80842025  2880
STARLINK-37749          
1 69651U 26143C   26183.25003472 -.00001503  00000+0 -71016-5 0  9996
2 69651  97.2830 226.8811 0001476  80.1888  68.4785 15.80833604  2881
STARLINK-37819          
1 69652U 26143D   26183.25003472  .00035867  00000+0  18712-3 0  9997
2 69652  97.2830 226.8709 0001174  84.8191  36.0639 15.80827920  2884
STARLINK-37729          
1 69653U 26143E   26183.25003472 -.00048652  00000+0 -25413-3 0  9992
2 69653  97.2831 226.8800 0000869  83.2833  60.9700 15.80863136  2888
STARLINK-37838          
1 69654U 26143F   26183.25003472  .00048659  00000+0  25330-3 0  9996
2 69654  97.2831 226.8711 0001329  79.5433  45.4480 15.80820457  2888
STARLINK-37884          
1 69655U 26143G   26183.25003472  .00030006  00000+0  15671-3 0  9991
2 69655  97.2829 226.8932 0001489 120.8360  52.6756 15.80836143  2882
STARLINK-37876          
1 69656U 26143H   26183.25003472  .00047437  00000+0  24692-3 0  9991
2 69656  97.2827 226.8828 0000918  69.6151  81.7421 15.80827756  2780
STARLINK-37784          
1 69657U 26143J   26183.25003472 -.00049311  00000+0 -25755-3 0  9998
2 69657  97.2828 226.8831 0001272  87.7241  65.4295 15.80867368  2782
STARLINK-37851          
1 69658U 26143K   26183.25003472  .00056949  00000+0  29601-3 0  9996
2 69658  97.2830 226.8954 0001149  73.6119 105.1625 15.80824357  2772
STARLINK-37229          
1 69659U 26143L   26183.25003472 -.00037237  00000+0 -19408-3 0  9992
2 69659  97.2829 226.8737 0001438  80.0829  51.9698 15.80861708  2826
STARLINK-37556          
1 69660U 26143M   26183.25003472  .00025723  00000+0  13449-3 0  9998
2 69660  97.2828 226.8793 0001107  89.2306  53.3189 15.80839403  2821
STARLINK-37867          
1 69661U 26143N   26183.25003472  .00063992  00000+0  33244-3 0  9994
2 69661  97.2831 226.9004 0001215  84.6740 106.9394 15.80811830  2785
STARLINK-37852          
1 69662U 26143P   26183.25003472 -.00048469  00000+0 -25311-3 0  9995
2 69662  97.2829 226.8794 0001261  85.0955  60.4930 15.80867493  2788
STARLINK-37554          
1 69663U 26143Q   26183.25003472  .00062595  00000+0  32523-3 0  9993
2 69663  97.2829 226.8972 0001305 107.6418  76.1396 15.80813426  2823
STARLINK-37830          
1 69664U 26143R   26183.25003472  .00045671  00000+0  23776-3 0  9990
2 69664  97.2832 226.8819 0000772 106.2663  43.9529 15.80832475  2771
STARLINK-37837          
1 69665U 26143S   26183.25003472  .00041047  00000+0  21394-3 0  9998
2 69665  97.2829 226.8980 0000691 102.5190  85.0443 15.80825076  2783
STARLINK-37943          
1 69666U 26143T   26183.25003472  .00065663  00000+0  34092-3 0  9998
2 69666  97.2829 226.8941 0001474 122.7434  54.5574 15.80819014  2787
STARLINK-37941          
1 69667U 26143U   26183.25003472 -.00043678  00000+0 -22792-3 0  9997
2 69667  97.2826 226.8895 0001296  90.3506  78.7594 15.80864195  2785
STARLINK-37930          
1 69668U 26143V   26183.25003472 -.00054797  00000+0 -28644-3 0  9994
2 69668  97.2827 226.8923 0001269  96.2975  78.8433 15.80868563  2779
STARLINK-37945          
1 69669U 26143W   26183.25003472 -.00045321  00000+0 -23663-3 0  9994
2 69669  97.2824 226.8965 0000965  99.7111  85.3937 15.80859386  2781
STARLINK-37948          
1 69670U 26143X   26183.25003472 -.00067664  00000+0 -35453-3 0  9990
2 69670  97.2828 226.9316 0001390  95.4298 170.6157 15.80860343  2787
STARLINK-37949          
1 69671U 26143Y   26183.25003472  .00065443  00000+0  33998-3 0  9994
2 69671  97.2833 226.9193 0001238  92.0242 144.6800 15.80807279  2785
STARLINK-37946          
1 69672U 26143Z   26183.25003472  .00001742  00000+0  98219-5 0  9996
2 69672  97.2828 226.9102 0001014  90.9468 123.1066 15.80838636  2786
TJS-26A                 
1 69674U 26144A   26174.32980920  .00009630 -16661-6  31526-3 0  9997
2 69674  19.5157 324.7456 7314561 179.7910 181.1077  2.27958502    21
